{"fetched_at":"2026-07-20T18:28:46.361Z","source":"https://celestrak.org/NORAD/elements/gp.php?GROUP=globalstar&FORMAT=JSON","constellation":"globalstar","records":[{"OBJECT_NAME":"GLOBALSTAR M080","OBJECT_ID":"2011-080B","EPOCH":"2026-07-20T06:04:48.434304","CLASSIFICATION_TYPE":"U","MEAN_MOTION":12.62257606,"ECCENTRICITY":0.00003005,"INCLINATION":52.006,"RA_OF_ASC_NODE":278.3498,"ARG_OF_PERICENTER":71.9505,"MEAN_ANOMALY":321.3937,"EPHEMERIS_TYPE":0,"NORAD_CAT_ID":38041,"ELEMENT_SET_NO":999,"REV_AT_EPOCH":67306,"BSTAR":0.00005661006,"MEAN_MOTION_DOT":-9.4e-7,"MEAN_MOTION_DDOT":0},{"OBJECT_NAME":"GLOBALSTAR M082","OBJECT_ID":"2011-080C","EPOCH":"2026-07-20T00:36:27.932256","CLASSIFICATION_TYPE":"U","MEAN_MOTION":12.62264357,"ECCENTRICITY":0.00001893,"INCLINATION":52.0052,"RA_OF_ASC_NODE":234.5472,"ARG_OF_PERICENTER":60.1626,"MEAN_ANOMALY":306.6042,"EPHEMERIS_TYPE":0,"NORAD_CAT_ID":38042,"ELEMENT_SET_NO":999,"REV_AT_EPOCH":67374,"BSTAR":0.000034140719,"MEAN_MOTION_DOT":-9.8e-7,"MEAN_MOTION_DDOT":0},{"OBJECT_NAME":"GLOBALSTAR M092","OBJECT_ID":"2011-080D","EPOCH":"2026-07-20T07:39:48.877344","CLASSIFICATION_TYPE":"U","MEAN_MOTION":12.6226793,"ECCENTRICITY":0.00007384,"INCLINATION":52.0105,"RA_OF_ASC_NODE":324.05,"ARG_OF_PERICENTER":111.9825,"MEAN_ANOMALY":270.8003,"EPHEMERIS_TYPE":0,"NORAD_CAT_ID":38043,"ELEMENT_SET_NO":999,"REV_AT_EPOCH":67223,"BSTAR":0.00011414509,"MEAN_MOTION_DOT":-8.3e-7,"MEAN_MOTION_DDOT":0},{"OBJECT_NAME":"GLOBALSTAR M090","OBJECT_ID":"2011-080E","EPOCH":"2026-07-19T06:37:50.555712","CLASSIFICATION_TYPE":"U","MEAN_MOTION":12.62269627,"ECCENTRICITY":0.00003901,"INCLINATION":52.0097,"RA_OF_ASC_NODE":230.7931,"ARG_OF_PERICENTER":84.5649,"MEAN_ANOMALY":355.6327,"EPHEMERIS_TYPE":0,"NORAD_CAT_ID":38044,"ELEMENT_SET_NO":999,"REV_AT_EPOCH":67376,"BSTAR":0.000030166293,"MEAN_MOTION_DOT":-9.8e-7,"MEAN_MOTION_DDOT":0},{"OBJECT_NAME":"GLOBALSTAR M086","OBJECT_ID":"2011-080F","EPOCH":"2026-07-19T08:41:01.097664","CLASSIFICATION_TYPE":"U","MEAN_MOTION":12.62287883,"ECCENTRICITY":0.0001434,"INCLINATION":51.9874,"RA_OF_ASC_NODE":230.4091,"ARG_OF_PERICENTER":117.6917,"MEAN_ANOMALY":255.3965,"EPHEMERIS_TYPE":0,"NORAD_CAT_ID":38045,"ELEMENT_SET_NO":999,"REV_AT_EPOCH":67372,"BSTAR":-0.000014247227,"MEAN_MOTION_DOT":-0.00000106,"MEAN_MOTION_DDOT":0},{"OBJECT_NAME":"GLOBALSTAR M097","OBJECT_ID":"2013-005A","EPOCH":"2026-07-20T02:28:57.232416","CLASSIFICATION_TYPE":"U","MEAN_MOTION":12.62271277,"ECCENTRICITY":0.00005373,"INCLINATION":52.0033,"RA_OF_ASC_NODE":143.1347,"ARG_OF_PERICENTER":45.2997,"MEAN_ANOMALY":314.7913,"EPHEMERIS_TYPE":0,"NORAD_CAT_ID":39072,"ELEMENT_SET_NO":999,"REV_AT_EPOCH":62106,"BSTAR":0.000019912644,"MEAN_MOTION_DOT":-0.000001,"MEAN_MOTION_DDOT":0},{"OBJECT_NAME":"GLOBALSTAR M093","OBJECT_ID":"2013-005B","EPOCH":"2026-07-20T05:38:29.447520","CLASSIFICATION_TYPE":"U","MEAN_MOTION":12.62266397,"ECCENTRICITY":0.00007687,"INCLINATION":52.0098,"RA_OF_ASC_NODE":136.094,"ARG_OF_PERICENTER":51.339,"MEAN_ANOMALY":308.7545,"EPHEMERIS_TYPE":0,"NORAD_CAT_ID":39073,"ELEMENT_SET_NO":999,"REV_AT_EPOCH":62103,"BSTAR":0.00010528857,"MEAN_MOTION_DOT":-8.5e-7,"MEAN_MOTION_DDOT":0},{"OBJECT_NAME":"GLOBALSTAR M094","OBJECT_ID":"2013-005C","EPOCH":"2026-07-19T23:56:12.803424","CLASSIFICATION_TYPE":"U","MEAN_MOTION":12.62264286,"ECCENTRICITY":0.00010404,"INCLINATION":51.9969,"RA_OF_ASC_NODE":50.9021,"ARG_OF_PERICENTER":70.4392,"MEAN_ANOMALY":289.6587,"EPHEMERIS_TYPE":0,"NORAD_CAT_ID":39074,"ELEMENT_SET_NO":999,"REV_AT_EPOCH":62261,"BSTAR":0.000032314136,"MEAN_MOTION_DOT":-9.8e-7,"MEAN_MOTION_DDOT":0},{"OBJECT_NAME":"GLOBALSTAR M096","OBJECT_ID":"2013-005D","EPOCH":"2026-07-20T04:03:44.285184","CLASSIFICATION_TYPE":"U","MEAN_MOTION":12.62265831,"ECCENTRICITY":0.00008297,"INCLINATION":52.0076,"RA_OF_ASC_NODE":99.2062,"ARG_OF_PERICENTER":51.6907,"MEAN_ANOMALY":308.4034,"EPHEMERIS_TYPE":0,"NORAD_CAT_ID":39075,"ELEMENT_SET_NO":999,"REV_AT_EPOCH":62155,"BSTAR":0.000094129918,"MEAN_MOTION_DOT":-8.7e-7,"MEAN_MOTION_DDOT":0},{"OBJECT_NAME":"GLOBALSTAR M078","OBJECT_ID":"2013-005E","EPOCH":"2026-07-20T03:25:03.926784","CLASSIFICATION_TYPE":"U","MEAN_MOTION":12.62260097,"ECCENTRICITY":0.00009522,"INCLINATION":51.9847,"RA_OF_ASC_NODE":183.2524,"ARG_OF_PERICENTER":352.4849,"MEAN_ANOMALY":7.6003,"EPHEMERIS_TYPE":0,"NORAD_CAT_ID":39076,"ELEMENT_SET_NO":999,"REV_AT_EPOCH":62017,"BSTAR":-0.000019127733,"MEAN_MOTION_DOT":-0.00000107,"MEAN_MOTION_DDOT":0},{"OBJECT_NAME":"GLOBALSTAR M095","OBJECT_ID":"2013-005F","EPOCH":"2026-07-20T02:09:26.603136","CLASSIFICATION_TYPE":"U","MEAN_MOTION":12.62264082,"ECCENTRICITY":0.0000566,"INCLINATION":52.0054,"RA_OF_ASC_NODE":181.0622,"ARG_OF_PERICENTER":21.0645,"MEAN_ANOMALY":339.0245,"EPHEMERIS_TYPE":0,"NORAD_CAT_ID":39077,"ELEMENT_SET_NO":999,"REV_AT_EPOCH":62002,"BSTAR":-0.000024997603,"MEAN_MOTION_DOT":-0.00000108,"MEAN_MOTION_DDOT":0},{"OBJECT_NAME":"GLOBALSTAR M087","OBJECT_ID":"2022-064A","EPOCH":"2026-07-20T06:16:20.608032","CLASSIFICATION_TYPE":"U","MEAN_MOTION":12.62269453,"ECCENTRICITY":0.00008989,"INCLINATION":52.0016,"RA_OF_ASC_NODE":321.7609,"ARG_OF_PERICENTER":90.8689,"MEAN_ANOMALY":269.2281,"EPHEMERIS_TYPE":0,"NORAD_CAT_ID":52888,"ELEMENT_SET_NO":999,"REV_AT_EPOCH":19531,"BSTAR":0.00010867478,"MEAN_MOTION_DOT":-8.4e-7,"MEAN_MOTION_DDOT":0}]}
